{
    "links": {
        "self": "http://www.neowsapp.com/rest/v1/neo/3759253?api_key=iIulBulltgU6a56xZRHN4H3l9WmuAYTsLGpBGhQ2"
    },
    "id": "3759253",
    "neo_reference_id": "3759253",
    "name": "(2016 RD18)",
    "designation": "2016 RD18",
    "nasa_jpl_url": "http://ssd.jpl.nasa.gov/sbdb.cgi?sstr=3759253",
    "absolute_magnitude_h": 26.5,
    "estimated_diameter": {
        "kilometers": {
            "estimated_diameter_min": 0.0133215567,
            "estimated_diameter_max": 0.0297879063
        },
        "meters": {
            "estimated_diameter_min": 13.3215566698,
            "estimated_diameter_max": 29.7879062798
        },
        "miles": {
            "estimated_diameter_min": 0.008277629,
            "estimated_diameter_max": 0.0185093411
        },
        "feet": {
            "estimated_diameter_min": 43.7058959846,
            "estimated_diameter_max": 97.7293544391
        }
    },
    "is_potentially_hazardous_asteroid": false,
    "close_approach_data": [
        {
            "close_approach_date": "2016-08-31",
            "close_approach_date_full": "2016-Aug-31 11:15",
            "epoch_date_close_approach": 1472642100000,
            "relative_velocity": {
                "kilometers_per_second": "8.1940015159",
                "kilometers_per_hour": "29498.4054573513",
                "miles_per_hour": "18329.1619909859"
            },
            "miss_distance": {
                "astronomical": "0.0316086971",
                "lunar": "12.2957831719",
                "kilometers": "4728593.759635177",
                "miles": "2938211.9155403626"
            },
            "orbiting_body": "Earth"
        }
    ],
    "orbital_data": {
        "orbit_id": "4",
        "orbit_determination_date": "2017-04-06 08:24:05",
        "first_observation_date": "2016-09-06",
        "last_observation_date": "2016-09-14",
        "data_arc_in_days": 8,
        "observations_used": 28,
        "orbit_uncertainty": "8",
        "minimum_orbit_intersection": ".0270395",
        "jupiter_tisserand_invariant": "3.143",
        "epoch_osculation": "2457639.5",
        "eccentricity": ".6000086802395364",
        "semi_major_axis": "2.578543819691437",
        "inclination": "3.06809069896016",
        "ascending_node_longitude": "169.2157185428848",
        "orbital_period": "1512.377477440244",
        "perihelion_distance": "1.031395145498565",
        "perihelion_argument": "158.3310355557585",
        "aphelion_distance": "4.125692493884309",
        "perihelion_time": "2457623.400247488549",
        "mean_anomaly": "3.832317652555998",
        "mean_motion": ".2380358114095388",
        "equinox": "J2000",
        "orbit_class": {
            "orbit_class_type": "AMO",
            "orbit_class_description": "Near-Earth asteroid orbits similar to that of 1221 Amor",
            "orbit_class_range": "1.017 AU < q (perihelion) < 1.3 AU"
        }
    },
    "is_sentry_object": false
}